GLOBALSTAR M045 [-]     
1 25676U 99019A   24091.80953601 -.00000079  00000+0  13001-3 0  9996
2 25676  51.9949 126.1090 0000683  95.6648  76.5409 12.27034416139081
GLOBALSTAR M019 [-]     
1 25677U 99019B   24091.65941625 -.00000041  00000+0  50979-3 0  9997
2 25677  51.9870 225.7696 0001761 133.8742 239.8243 12.13854724131406
GLOBALSTAR M044 [-]     
1 25678U 99019C   24091.80634373 -.00000085  00000+0 -21269-4 0  9994
2 25678  51.9946 121.3781 0006124 265.1724 265.8926 11.90230174118643
GLOBALSTAR M042 [-]     
1 25679U 99019D   24091.64937131 -.00000029  00000+0  59568-3 0  9994
2 25679  52.0001 220.2227 0003741 108.7334 264.4762 12.22058701131157
GLOBALSTAR M025 [-]     
1 25770U 99031A   24091.92844802 -.00000069  00000+0 -51214-4 0  9999
2 25770  51.9785 103.7872 0001522 132.4103 290.5619 11.22549921432041
GLOBALSTAR M049 [-]     
1 25771U 99031B   24091.76939494 -.00000015  00000+0  17288-2 0  9995
2 25771  51.9845 116.6870 0002699 353.5652   6.5109 11.12103963 68204
GLOBALSTAR M047 [-]     
1 25772U 99031C   24091.90315362 -.00000057  00000+0  34173-3 0  9993
2 25772  51.9816 155.6090 0016591 222.0643 137.8890 11.31919797421025
GLOBALSTAR M052 [-]     
1 25773U 99031D   24091.64005417  .00000002  00000+0  22640-2 0  9996
2 25773  51.9850 231.8782 0003317 150.8977 221.8228 11.15050090429143
